     3.04           N: GNSS NAV DATA    M: MIXED            RINEX VERSION / TYPE
ssrcrin-15.6.1x                         20250101 011500 UTC PGM / RUN BY / DATE 
    18                                                      LEAP SECONDS        
                                                            END OF HEADER       
S23 2025 01 01 01 15 12 0.000000000000E+00 0.000000000000E+00 2.637250000000E+05
     3.866796400000E+04 0.000000000000E+00 0.000000000000E+00 6.300000000000E+01
     1.681330800000E+04 0.000000000000E+00 0.000000000000E+00 3.276700000000E+04
     0.000000000000E+00 0.000000000000E+00 0.000000000000E+00 2.200000000000E+01
S36 2025 01 01 01 14 08 0.000000000000E+00 0.000000000000E+00 2.637300000000E+05
     4.200368800000E+04 0.000000000000E+00 0.000000000000E+00 6.300000000000E+01
     3.674846960000E+03 0.000000000000E+00 0.000000000000E+00 3.276700000000E+04
     0.000000000000E+00 0.000000000000E+00 0.000000000000E+00 1.820000000000E+02
E18 2025 01 01 01 00 00 9.476336417720E-04 4.283151611162E-11 0.000000000000E+00
     5.700000000000E+01 3.918750000000E+01 6.500270762369E-09-9.580381865474E-01
     1.091510057449E-06 1.621166100958E-01 6.357207894325E-06 5.289321334839E+03
     2.628000000000E+05 1.844018697739E-07-2.841152336713E+00-2.404674887657E-06
     8.635223322341E-01 2.048125000000E+02 2.772384772474E+00-9.413606400206E-09
     1.329341086678E-09 2.580000000000E+02 2.347000000000E+03
     3.120000000000E+00 1.600000000000E+01-3.492459654808E-09 0.000000000000E+00
     2.637400000000E+05
S36 2025 01 01 01 16 32 0.000000000000E+00 0.000000000000E+00 2.638060000000E+05
     4.200368800000E+04 0.000000000000E+00 0.000000000000E+00 6.300000000000E+01
     3.674846960000E+03 0.000000000000E+00 0.000000000000E+00 3.276700000000E+04
     0.000000000000E+00 0.000000000000E+00 0.000000000000E+00 1.830000000000E+02
S23 2025 01 01 01 17 20 0.000000000000E+00 0.000000000000E+00 2.638520000000E+05
     3.866796400000E+04 0.000000000000E+00 0.000000000000E+00 6.300000000000E+01
     1.681330800000E+04 0.000000000000E+00 0.000000000000E+00 3.276700000000E+04
     0.000000000000E+00 0.000000000000E+00 0.000000000000E+00 2.300000000000E+01
E05 2025 01 01 01 00 00 4.815159016289E-03 3.311129148642E-12 0.000000000000E+00
     5.700000000000E+01-1.275000000000E+02 2.660110804292E-09 2.306758871960E+00
    -6.070360541344E-06 2.015545032918E-05 1.166388392448E-05 5.440620672226E+03
     2.628000000000E+05 3.911554813385E-08 3.134399488320E-01-1.862645149231E-09
     9.635883499854E-01 9.118750000000E+01-2.741610782408E+00-5.224503335820E-09
     3.035840740667E-10 5.170000000000E+02 2.347000000000E+03
     3.120000000000E+00 0.000000000000E+00-2.328306436539E-10 9.313225746155E-10
     2.639450000000E+05
S36 2025 01 01 01 19 12 0.000000000000E+00 0.000000000000E+00 2.639620000000E+05
     4.200368800000E+04 0.000000000000E+00 0.000000000000E+00 6.300000000000E+01
     3.674846960000E+03 0.000000000000E+00 0.000000000000E+00 3.276700000000E+04
     0.000000000000E+00 0.000000000000E+00 0.000000000000E+00 1.840000000000E+02
S23 2025 01 01 01 19 28 0.000000000000E+00 0.000000000000E+00 2.639770000000E+05
     3.866796400000E+04 0.000000000000E+00 0.000000000000E+00 6.300000000000E+01
     1.681330800000E+04 0.000000000000E+00 0.000000000000E+00 3.276700000000E+04
     0.000000000000E+00 0.000000000000E+00 0.000000000000E+00 2.400000000000E+01
E05 2025 01 01 01 00 00 4.815157502890E-03 3.296918293927E-12 0.000000000000E+00
     5.700000000000E+01-1.275000000000E+02 2.660110804292E-09 2.306758871960E+00
    -6.070360541344E-06 2.015545032918E-05 1.166388392448E-05 5.440620672226E+03
     2.628000000000E+05 3.911554813385E-08 3.134399488320E-01-1.862645149231E-09
     9.635883499854E-01 9.118750000000E+01-2.741610782408E+00-5.224503335820E-09
     3.035840740667E-10 2.580000000000E+02 2.347000000000E+03
     3.120000000000E+00 0.000000000000E+00-2.328306436539E-10 0.000000000000E+00
     2.640200000000E+05
E06 2025 01 01 01 10 00-6.515916902572E-05-4.419575816428E-12 0.000000000000E+00
     5.800000000000E+01-1.469375000000E+02 2.750828868778E-09-1.182267543240E+00
    -6.811693310738E-06 4.470369312912E-04 1.141615211964E-05 5.440610877991E+03
     2.634000000000E+05-6.519258022308E-08 3.159409491915E-01 3.725290298462E-08
     9.568384883923E-01 9.559375000000E+01 1.985178126340E+00-5.159857785931E-09
     3.267993267894E-10 5.170000000000E+02 2.347000000000E+03
     3.120000000000E+00 0.000000000000E+00-2.328306436539E-10 1.629814505577E-09
     2.640650000000E+05
E10 2025 01 01 01 10 00-6.801987765357E-04-2.515321284591E-12 0.000000000000E+00
     5.800000000000E+01 1.621875000000E+02 2.792616323679E-09-1.326935769572E+00
     7.517635822296E-06 1.197964884341E-04 2.682209014893E-07 5.440603355408E+03
     2.634000000000E+05-9.872019290924E-08-1.777524071824E+00-1.490116119385E-08
     9.995084484417E-01 3.519062500000E+02-2.037350887705E+00-5.688094074807E-09
     2.717970357232E-10 5.170000000000E+02 2.347000000000E+03
     3.120000000000E+00 0.000000000000E+00-4.656612873077E-09-3.492459654808E-09
     2.640650000000E+05
E05 2025 01 01 01 10 00 4.815161111765E-03 3.311129148642E-12 0.000000000000E+00
     5.800000000000E+01-1.270625000000E+02 2.657253542419E-09 2.380790583061E+00
    -6.042420864105E-06 2.006639260799E-05 1.162849366665E-05 5.440620849609E+03
     2.634000000000E+05 4.284083843231E-08 3.134368006323E-01 3.725290298462E-09
     9.635885635714E-01 9.175000000000E+01-2.741257633984E+00-5.219503127542E-09
     3.021554431299E-10 5.170000000000E+02 2.347000000000E+03
     3.120000000000E+00 0.000000000000E+00-2.328306436539E-10 9.313225746155E-10
     2.640650000000E+05
E04 2025 01 01 01 10 00-1.210412010550E-04-9.521272659185E-12 0.000000000000E+00
     5.800000000000E+01-1.497187500000E+02 2.614037456581E-09 2.915468981831E+00
    -6.908550858498E-06 1.076947664842E-04 1.181103289127E-05 5.440611850739E+03
     2.634000000000E+05-5.215406417847E-08 3.135535239400E-01-3.352761268616E-08
     9.636150453145E-01 9.159375000000E+01-1.717994936196E+00-5.092712131902E-09
     2.982267080537E-10 5.170000000000E+02 2.347000000000E+03
     3.120000000000E+00 0.000000000000E+00-6.286427378654E-09-6.053596735001E-09
     2.640650000000E+05
E18 2025 01 01 01 10 00 9.476595441811E-04 4.283151611162E-11 0.000000000000E+00
     5.800000000000E+01 3.856250000000E+01 6.559916103979E-09-8.770843888968E-01
     1.197680830956E-06 1.621165496763E-01 6.210058927536E-06 5.289321012497E+03
     2.634000000000E+05 4.116445779800E-07-2.841156273426E+00-2.350658178329E-06
     8.635233036117E-01 2.055312500000E+02 2.772384525241E+00-9.608257365343E-09
     1.146476326769E-09 5.170000000000E+02 2.347000000000E+03
     3.120000000000E+00 1.300000000000E+02-3.492459654808E-09-3.492459654808E-09
     2.640840000000E+05
S23 2025 01 01 01 21 36 0.000000000000E+00 0.000000000000E+00 2.641030000000E+05
     3.866796400000E+04 0.000000000000E+00 0.000000000000E+00 6.300000000000E+01
     1.681330800000E+04 0.000000000000E+00 0.000000000000E+00 3.276700000000E+04
     0.000000000000E+00 0.000000000000E+00 0.000000000000E+00 2.500000000000E+01
S36 2025 01 01 01 21 52 0.000000000000E+00 0.000000000000E+00 2.641140000000E+05
     4.200368800000E+04 0.000000000000E+00 0.000000000000E+00 6.300000000000E+01
     3.674846960000E+03 0.000000000000E+00 0.000000000000E+00 3.276700000000E+04
     0.000000000000E+00 0.000000000000E+00 0.000000000000E+00 1.850000000000E+02
E18 2025 01 01 01 10 00 9.476594277658E-04 4.284572696633E-11 0.000000000000E+00
     5.800000000000E+01 3.856250000000E+01 6.559916103979E-09-8.770843888968E-01
     1.197680830956E-06 1.621165496763E-01 6.210058927536E-06 5.289321012497E+03
     2.634000000000E+05 4.116445779800E-07-2.841156273426E+00-2.350658178329E-06
     8.635233036117E-01 2.055312500000E+02 2.772384525241E+00-9.608257365343E-09
     1.146476326769E-09 2.580000000000E+02 2.347000000000E+03
     3.120000000000E+00 1.600000000000E+01-3.492459654808E-09 0.000000000000E+00
     2.641400000000E+05
E06 2025 01 01 01 10 00-6.516138091683E-05-4.419575816428E-12 0.000000000000E+00
     5.800000000000E+01-1.469375000000E+02 2.750828868778E-09-1.182267543240E+00
    -6.811693310738E-06 4.470369312912E-04 1.141615211964E-05 5.440610877991E+03
     2.634000000000E+05-6.519258022308E-08 3.159409491915E-01 3.725290298462E-08
     9.568384883923E-01 9.559375000000E+01 1.985178126340E+00-5.159857785931E-09
     3.267993267894E-10 2.580000000000E+02 2.347000000000E+03
     3.120000000000E+00 0.000000000000E+00-2.328306436539E-10 0.000000000000E+00
     2.641400000000E+05
E04 2025 01 01 01 10 00-1.210417249240E-04-9.521272659185E-12 0.000000000000E+00
     5.800000000000E+01-1.497187500000E+02 2.614037456581E-09 2.915468981831E+00
    -6.908550858498E-06 1.076947664842E-04 1.181103289127E-05 5.440611850739E+03
     2.634000000000E+05-5.215406417847E-08 3.135535239400E-01-3.352761268616E-08
     9.636150453145E-01 9.159375000000E+01-1.717994936196E+00-5.092712131902E-09
     2.982267080537E-10 2.580000000000E+02 2.347000000000E+03
     3.120000000000E+00 0.000000000000E+00-6.286427378654E-09 0.000000000000E+00
     2.641400000000E+05
E10 2025 01 01 01 10 00-6.802002317272E-04-2.501110429876E-12 0.000000000000E+00
     5.800000000000E+01 1.621875000000E+02 2.792616323679E-09-1.326935769572E+00
     7.517635822296E-06 1.197964884341E-04 2.682209014893E-07 5.440603355408E+03
     2.634000000000E+05-9.872019290924E-08-1.777524071824E+00-1.490116119385E-08
     9.995084484417E-01 3.519062500000E+02-2.037350887705E+00-5.688094074807E-09
     2.717970357232E-10 2.580000000000E+02 2.347000000000E+03
     3.120000000000E+00 0.000000000000E+00-4.656612873077E-09 0.000000000000E+00
     2.641400000000E+05
